{"type": "FeatureCollection", "features": [ {"type": "Feature", "properties": {"norad_id": 43262, "name": "GAOFEN-1 04", "group": "resource", "lat": 55.30448853548379, "lon": 22.645589724415064, "alt_km": 634.434278491347, "timestamp": "2025-12-02T15:49:06.840583+00:00", "meta": {"OBJECT_NAME": "GAOFEN-1 04", "OBJECT_ID": "2018-031D", "EPOCH": "2025-12-02T07:25:57.036288", "MEAN_MOTION": 14.76414229, "ECCENTRICITY": 0.00013903, "INCLINATION": 98.0823, "RA_OF_ASC_NODE": 34.1404, "ARG_OF_PERICENTER": 63.1279, "MEAN_ANOMALY": 297.0073, "EPHEMERIS_TYPE": 0, "CLASSIFICATION_TYPE": "U", "NORAD_CAT_ID": 43262, "ELEMENT_SET_NO": 999, "REV_AT_EPOCH": 41363, "BSTAR": 0.00019976425, "MEAN_MOTION_DOT": 1.337e-05, "MEAN_MOTION_DDOT": 0}, "tle": {"line1": "1 43262U 18031D   25336.30968792  .00001337  00000+0  19976-3 0  9991", "line2": "2 43262  98.0823  34.1404 0001390  63.1279 297.0073 14.76414229413631"}}, "geometry": {"type": "Point", "coordinates": [22.645589724415064, 55.30448853548379]}}, {"type": "Feature", "properties": {"norad_id": 43437, "name": "SENTINEL-3B", "group": "resource", "lat": -42.83146923147181, "lon": -146.1033451275811, "alt_km": 809.6514163385991, "timestamp": "2025-12-02T15:49:06.840593+00:00", "meta": {"OBJECT_NAME": "SENTINEL-3B", "OBJECT_ID": "2018-039A", "EPOCH": "2025-12-02T04:40:34.740192", "MEAN_MOTION": 14.2673608, "ECCENTRICITY": 0.00014659, "INCLINATION": 98.6281, "RA_OF_ASC_NODE": 41.5306, "ARG_OF_PERICENTER": 112.8551, "MEAN_ANOMALY": 247.2785, "EPHEMERIS_TYPE": 0, "CLASSIFICATION_TYPE": "U", "NORAD_CAT_ID": 43437, "ELEMENT_SET_NO": 999, "REV_AT_EPOCH": 39603, "BSTAR": 9.3084713e-05, "MEAN_MOTION_DOT": 1.82e-06, "MEAN_MOTION_DDOT": 0}, "tle": {"line1": "1 43437U 18039A   25336.19484653  .00000182  00000+0  93085-4 0  9990", "line2": "2 43437  98.6281  41.5306 0001465 112.8551 247.2785 14.26736080396038"}}, "geometry": {"type": "Point", "coordinates": [-146.1033451275811, -42.83146923147181]}}, {"type": "Feature", "properties": {"norad_id": 43461, "name": "GAOFEN-5 01", "group": "resource", "lat": 70.7322381102272, "lon": -85.65514032650759, "alt_km": 684.480698240106, "timestamp": "2025-12-02T15:49:06.840603+00:00", "meta": {"OBJECT_NAME": "GAOFEN-5 01", "OBJECT_ID": "2018-043A", "EPOCH": "2025-12-01T21:23:57.682176", "MEAN_MOTION": 14.60389358, "ECCENTRICITY": 0.00016704, "INCLINATION": 98.4311, "RA_OF_ASC_NODE": 298.6706, "ARG_OF_PERICENTER": 14.3292, "MEAN_ANOMALY": 345.7954, "EPHEMERIS_TYPE": 0, "CLASSIFICATION_TYPE": "U", "NORAD_CAT_ID": 43461, "ELEMENT_SET_NO": 999, "REV_AT_EPOCH": 40289, "BSTAR": 0.00013041428, "MEAN_MOTION_DOT": 5.82e-06, "MEAN_MOTION_DDOT": 0}, "tle": {"line1": "1 43461U 18043A   25335.89163984  .00000582  00000+0  13041-3 0  9996", "line2": "2 43461  98.4311 298.6706 0001670  14.3292 345.7954 14.60389358402896"}}, "geometry": {"type": "Point", "coordinates": [-85.65514032650759, 70.7322381102272]}}, {"type": "Feature", "properties": {"norad_id": 43484, "name": "GAOFEN-6", "group": "resource", "lat": -23.608786496130055, "lon": -142.172621824598, "alt_km": 648.8890203489636, "timestamp": "2025-12-02T15:49:06.840613+00:00", "meta": {"OBJECT_NAME": "GAOFEN-6", "OBJECT_ID": "2018-048A", "EPOCH": "2025-12-02T01:53:23.034912", "MEAN_MOTION": 14.76647441, "ECCENTRICITY": 0.00130072, "INCLINATION": 97.8045, "RA_OF_ASC_NODE": 40.7031, "ARG_OF_PERICENTER": 93.3192, "MEAN_ANOMALY": 266.9506, "EPHEMERIS_TYPE": 0, "CLASSIFICATION_TYPE": "U", "NORAD_CAT_ID": 43484, "ELEMENT_SET_NO": 999, "REV_AT_EPOCH": 40430, "BSTAR": 0.00015465224, "MEAN_MOTION_DOT": 1.033e-05, "MEAN_MOTION_DDOT": 0}, "tle": {"line1": "1 43484U 18048A   25336.07873883  .00001033  00000+0  15465-3 0  9997", "line2": "2 43484  97.8045  40.7031 0013007  93.3192 266.9506 14.76647441404300"}}, "geometry": {"type": "Point", "coordinates": [-142.172621824598, -23.608786496130055]}}, {"type": "Feature", "properties": {"norad_id": 43585, "name": "GAOFEN-11 01", "group": "resource", "lat": -81.23406107775133, "lon": 165.08885813603123, "alt_km": 427.7542482408335, "timestamp": "2025-12-02T15:49:06.840626+00:00", "meta": {"OBJECT_NAME": "GAOFEN-11 01", "OBJECT_ID": "2018-063A", "EPOCH": "2025-12-02T06:55:28.561728", "MEAN_MOTION": 15.48772809, "ECCENTRICITY": 0.00050616, "INCLINATION": 97.1583, "RA_OF_ASC_NODE": 39.3135, "ARG_OF_PERICENTER": 358.0373, "MEAN_ANOMALY": 2.0858, "EPHEMERIS_TYPE": 0, "CLASSIFICATION_TYPE": "U", "NORAD_CAT_ID": 43585, "ELEMENT_SET_NO": 999, "REV_AT_EPOCH": 40980, "BSTAR": 0.00031916846, "MEAN_MOTION_DOT": 0.00017065, "MEAN_MOTION_DDOT": 0}, "tle": {"line1": "1 43585U 18063A   25336.28852502  .00017065  00000+0  31917-3 0  9996", "line2": "2 43585  97.1583  39.3135 0005061 358.0373   2.0858 15.48772809409800"}}, "geometry": {"type": "Point", "coordinates": [165.08885813603123, -81.23406107775133]}}, {"type": "Feature", "properties": {"norad_id": 43613, "name": "ICESAT-2", "group": "resource", "lat": 36.267862971049475, "lon": -123.45717535835348, "alt_km": 478.66326648445283, "timestamp": "2025-12-02T15:49:06.840637+00:00", "meta": {"OBJECT_NAME": "ICESAT-2", "OBJECT_ID": "2018-070A", "EPOCH": "2025-12-02T06:13:53.391072", "MEAN_MOTION": 15.28301292, "ECCENTRICITY": 5.973e-05, "INCLINATION": 92.0054, "RA_OF_ASC_NODE": 237.9082, "ARG_OF_PERICENTER": 150.4258, "MEAN_ANOMALY": 209.7025, "EPHEMERIS_TYPE": 0, "CLASSIFICATION_TYPE": "U", "NORAD_CAT_ID": 43613, "ELEMENT_SET_NO": 999, "REV_AT_EPOCH": 40238, "BSTAR": 0.00057664286, "MEAN_MOTION_DOT": 0.00015901, "MEAN_MOTION_DDOT": 0}, "tle": {"line1": "1 43613U 18070A   25336.25964573  .00015901  00000+0  57664-3 0  9999", "line2": "2 43613  92.0054 237.9082 0000597 150.4258 209.7025 15.28301292402381"}}, "geometry": {"type": "Point", "coordinates": [-123.45717535835348, 36.267862971049475]}}, {"type": "Feature", "properties": {"norad_id": 43719, "name": "HYSIS", "group": "resource", "lat": 16.305120771071888, "lon": -137.9533734606435, "alt_km": 634.5722209600044, "timestamp": "2025-12-02T15:49:06.840647+00:00", "meta": {"OBJECT_NAME": "HYSIS", "OBJECT_ID": "2018-096A", "EPOCH": "2025-12-02T02:05:19.807584", "MEAN_MOTION": 14.78593325, "ECCENTRICITY": 0.00017552, "INCLINATION": 98.0111, "RA_OF_ASC_NODE": 39.1163, "ARG_OF_PERICENTER": 68.8994, "MEAN_ANOMALY": 291.2404, "EPHEMERIS_TYPE": 0, "CLASSIFICATION_TYPE": "U", "NORAD_CAT_ID": 43719, "ELEMENT_SET_NO": 999, "REV_AT_EPOCH": 37829, "BSTAR": 2.1475355e-05, "MEAN_MOTION_DOT": 1.05e-06, "MEAN_MOTION_DDOT": 0}, "tle": {"line1": "1 43719U 18096A   25336.08703481  .00000105  00000+0  21475-4 0  9996", "line2": "2 43719  98.0111  39.1163 0001755  68.8994 291.2404 14.78593325378299"}}, "geometry": {"type": "Point", "coordinates": [-137.9533734606435, 16.305120771071888]}}, {"type": "Feature", "properties": {"norad_id": 43783, "name": "KAZSTSAT", "group": "resource", "lat": 9.594720878589827, "lon": 11.009267707684337, "alt_km": 566.2059242234045, "timestamp": "2025-12-02T15:49:06.840658+00:00", "meta": {"OBJECT_NAME": "KAZSTSAT", "OBJECT_ID": "2018-099AB", "EPOCH": "2025-12-02T01:21:35.196768", "MEAN_MOTION": 14.99291992, "ECCENTRICITY": 0.00066196, "INCLINATION": 97.4552, "RA_OF_ASC_NODE": 11.7011, "ARG_OF_PERICENTER": 8.824, "MEAN_ANOMALY": 351.3099, "EPHEMERIS_TYPE": 0, "CLASSIFICATION_TYPE": "U", "NORAD_CAT_ID": 43783, "ELEMENT_SET_NO": 999, "REV_AT_EPOCH": 38176, "BSTAR": 0.00020697251, "MEAN_MOTION_DOT": 2.472e-05, "MEAN_MOTION_DDOT": 0}, "tle": {"line1": "1 43783U 18099AB  25336.05665737  .00002472  00000+0  20697-3 0  9991", "line2": "2 43783  97.4552  11.7011 0006619   8.8240 351.3099 14.99291992381764"}}, "geometry": {"type": "Point", "coordinates": [11.009267707684337, 9.594720878589827]}}, {"type": "Feature", "properties": {"norad_id": 43831, "name": "SAUDISAT 5A", "group": "resource", "lat": -12.175670370251122, "lon": -144.5472791384373, "alt_km": 493.2511541736585, "timestamp": "2025-12-02T15:49:06.840668+00:00", "meta": {"OBJECT_NAME": "SAUDISAT 5A", "OBJECT_ID": "2018-102A", "EPOCH": "2025-12-02T07:06:30.143808", "MEAN_MOTION": 15.25450663, "ECCENTRICITY": 0.00117784, "INCLINATION": 97.3376, "RA_OF_ASC_NODE": 36.69, "ARG_OF_PERICENTER": 108.3316, "MEAN_ANOMALY": 251.9205, "EPHEMERIS_TYPE": 0, "CLASSIFICATION_TYPE": "U", "NORAD_CAT_ID": 43831, "ELEMENT_SET_NO": 999, "REV_AT_EPOCH": 38563, "BSTAR": 0.00029928363, "MEAN_MOTION_DOT": 7.514e-05, "MEAN_MOTION_DDOT": 0}, "tle": {"line1": "1 43831U 18102A   25336.29618222  .00007514  00000+0  29928-3 0  9991", "line2": "2 43831  97.3376  36.6900 0011778 108.3316 251.9205 15.25450663385632"}}, "geometry": {"type": "Point", "coordinates": [-144.5472791384373, -12.175670370251122]}}, {"type": "Feature", "properties": {"norad_id": 43833, "name": "SAUDISAT 5B", "group": "resource", "lat": -51.000285997437366, "lon": -149.40206454932732, "alt_km": 499.83222975341414, "timestamp": "2025-12-02T15:49:06.840678+00:00", "meta": {"OBJECT_NAME": "SAUDISAT 5B", "OBJECT_ID": "2018-102C", "EPOCH": "2025-12-02T06:56:17.968704", "MEAN_MOTION": 15.25808563, "ECCENTRICITY": 0.0012439, "INCLINATION": 97.347, "RA_OF_ASC_NODE": 39.4028, "ARG_OF_PERICENTER": 110.9066, "MEAN_ANOMALY": 249.3505, "EPHEMERIS_TYPE": 0, "CLASSIFICATION_TYPE": "U", "NORAD_CAT_ID": 43833, "ELEMENT_SET_NO": 999, "REV_AT_EPOCH": 38574, "BSTAR": 0.00028681081, "MEAN_MOTION_DOT": 7.277e-05, "MEAN_MOTION_DDOT": 0}, "tle": {"line1": "1 43833U 18102C   25336.28909686  .00007277  00000+0  28681-3 0  9990", "line2": "2 43833  97.3470  39.4028 0012439 110.9066 249.3505 15.25808563385749"}}, "geometry": {"type": "Point", "coordinates": [-149.40206454932732, -51.000285997437366]}}]}